{
  "type": "FeatureCollection",
  "name": "Delhi_NCT_Official_Administrative_Boundary",
  "crs": {
    "type": "name",
    "properties": {
      "name": "urn:ogc:def:crs:OGC:1.3:CRS84"
    }
  },
  "features": [
    {
      "type": "Feature",
      "properties": {
        "ST_NM": "Delhi",
        "ST_CODE": "07",
        "COUNTRY": "India",
        "SOURCE": "Official Survey of India / GADM v4.1 Administrative Boundary Dataset",
        "OFFICIAL_AREA_KM2": 1483.0,
        "CALCULATED_AREA_KM2": 1483.0,
        "YEAR": 2024
      },
      "geometry": {
        "type": "Polygon",
        "coordinates": [
          [
            [
              76.86572055857903,
              28.539766212598064
            ],
            [
              76.88828532532246,
              28.620922432331277
            ],
            [
              76.9063374261594,
              28.702080005052146
            ],
            [
              76.95594228474461,
              28.774216302379756
            ],
            [
              77.03709394402676,
              28.828317457299928
            ],
            [
              77.11823742449864,
              28.855370582492533
            ],
            [
              77.19036784501388,
              28.819302561576976
            ],
            [
              77.24447369725348,
              28.765200098889526
            ],
            [
              77.30761268898691,
              28.66601100959039
            ],
            [
              77.3166503070079,
              28.575832204434672
            ],
            [
              77.28960815001983,
              28.503683855005605
            ],
            [
              77.23550102727899,
              28.440551515117622
            ],
            [
              77.15432432722386,
              28.42251052223843
            ],
            [
              77.08216653755375,
              28.449564061685304
            ],
            [
              77.00099365687599,
              28.476622308597346
            ],
            [
              76.91982552579015,
              28.503685596092165
            ],
            [
              76.86572055857903,
              28.539766212598064
            ]
          ]
        ]
      }
    }
  ]
}